FLOCK 4S-29             
1 47520U 21006DL  21188.12906348  .00002455  00000-0  14505-3 0  9994
2 47520  97.4860 248.7454 0009567  52.3833 307.8264 15.12390600 25014
FLOCK 4S-15             
1 47521U 21006DM  21188.12579401  .00003465  00000-0  20242-3 0  9998
2 47521  97.4951 248.9536 0009846  54.2211 305.9934 15.12521999 25986
FLOCK 4S-37             
1 47522U 21006DN  21188.19698500  .00002183  00000-0  12939-3 0  9998
2 47522  97.4947 248.9991 0009641  53.3613 306.8502 15.12387457 25997
FLOCK 4S-10             
1 47523U 21006DP  21188.14674800  .00001677  00000-0  10076-3 0  9998
2 47523  97.4881 248.7710 0009902  57.6647 302.5541 15.12206313 25016
LEMUR-2-JENNIFERSONG    
1 47525U 21006DR  21188.23514296  .00002127  00000-0  12333-3 0  9991
2 47525  97.4885 249.1112 0012612  42.2128 318.0072 15.13181642 25041
KEPLER-14 (STELLA)      
1 47526U 21006DS  21188.20727611  .00001300  00000-0  79114-4 0  9999
2 47526  97.4845 248.7654 0009901  53.1394 307.0743 15.12129795 25983
FLOCK 4S-7              
1 47527U 21006DT  21188.13217013  .00002262  00000-0  13401-3 0  9996
2 47527  97.4854 248.7332 0010018  54.5397 305.6767 15.12357789 25971
FLOCK 4S-14             
1 47528U 21006DU  21188.13242012  .00002194  00000-0  13018-3 0  9992
2 47528  97.4949 248.9357 0009881  54.3090 305.9059 15.12352061 25975
LEMUR-2-CHANTAL         
1 47529U 21006DV  21188.40425532  .00001450  00000-0  87756-4 0  9998
2 47529  97.4883 249.0299 0008939  49.2442 310.9563 15.12156646 26010
FLOCK 4S-36             
1 47530U 21006DW  21188.46562040  .00002188  00000-0  12987-3 0  9994
2 47530  97.4941 249.2402 0009277  51.9295 308.2771 15.12339798 26020
KEPLER-9 (ARTEMIS)      
1 47531U 21006DX  21188.20997625  .00001317  00000-0  80152-4 0  9991
2 47531  97.4959 249.0051 0010201  55.7923 304.4273 15.12109635 25981
YAOGAN-31 D             
1 47532U 21007A   21188.51667545 -.00000075  00000-0  25364-4 0  9997
2 47532  63.4070 100.1978 0016080 326.7800  33.2218 13.45213015 21423
YAOGAN-31 E             
1 47533U 21007B   21188.66537884 -.00000031  00000-0  10000-3 0  9998
2 47533  63.4063  98.9208 0016189 326.9789  33.0227 13.45213358 21455
YAOGAN-31 F             
1 47536U 21007E   21188.51649392 -.00000031  00000-0  10000-3 0  9993
2 47536  63.4069  99.3056 0015896 325.9456  34.0547 13.45214308 21445
LEMUR-2-NOOBNOOB        
1 47538U 21006DY  21188.70804510  .00001738  00000-0  10184-3 0  9997
2 47538  97.4941 249.6775 0012288  40.7696 319.4452 15.13048757 25114
FLOCK 4S-24             
1 47539U 21006DZ  21188.77281110  .00000821  00000-0  50130-4 0  9998
2 47539  97.4884 249.6212 0012296  35.3532 324.8512 15.12982952 25126
FLOCK 4S-20             
1 47540U 21006EA  21188.11439119  .00000995  00000-0  59988-4 0  9994
2 47540  97.4938 249.0867 0012039  37.7878 322.4196 15.12978986 24091
HIBER-4                 
1 47541U 21006EB  21188.45179429  .00001288  00000-0  76756-4 0  9995
2 47541  97.4853 249.2219 0012408  39.0519 321.1606 15.12899784 25077
FLOCK 4S-25             
1 47542U 21006EC  21188.11859225  .00000930  00000-0  56352-4 0  9991
2 47542  97.4865 248.9196 0012048  38.9558 321.2538 15.12941250 24094
FLOCK 4S-1              
1 47543U 21006ED  21188.11872923  .00000794  00000-0  48629-4 0  9998
2 47543  97.4863 248.9169 0011464  36.7117 323.4897 15.12958398 24094
FLOCK 4S-30             
1 47544U 21006EE  21188.46153849  .00002444  00000-0  14443-3 0  9996
2 47544  97.4866 249.0840 0009522  51.8258 308.3829 15.12384011 26029
FLOCK 4S-23             
1 47545U 21006EF  21188.17487101  .00001050  00000-0  63015-4 0  9998
2 47545  97.4894 249.0615 0012390  37.0143 323.1941 15.13044857 26007
COSMOS 2549             
1 47546U 21008A   21188.46724643 -.00000052  00000-0  16468-4 0  9990
2 47546  67.1478  54.5798 0005421 254.2027 105.8464 13.96671626 21641
STARLINK-1782           
1 47548U 21009A   21188.66667824  .00038252  00000-0  25743-2 0  9998
2 47548  53.0544 110.2431 0002016  80.6660  75.0647 15.06380748 24409
STARLINK-1806           
1 47549U 21009B   21188.66667824  .00037448  00000-0  25210-2 0  9994
2 47549  53.0538 110.2418 0002287  80.3854  95.3237 15.06378911 24409
STARLINK-1909           
1 47550U 21009C   21188.83334491 -.00014415  00000-0 -95039-3 0  9994
2 47550  53.0521  99.4929 0001312  85.4597 209.4786 15.06416670 24565
STARLINK-1938           
1 47551U 21009D   21188.17634938 -.00001503  00000-0 -82055-4 0  9990
2 47551  53.0552 122.4399 0001945  68.6138 291.5058 15.06387088 23589
STARLINK-1940           
1 47552U 21009E   21188.66667824  .00041440  00000-0  27865-2 0  9993
2 47552  53.0550 110.2418 0002041  76.6596  39.0313 15.06374573 24406
STARLINK-1951           
1 47553U 21009F   21188.66667824  .00037607  00000-0  25309-2 0  9995
2 47553  53.0564 110.2450 0007156 303.7048 252.0283 15.06372230 24407
STARLINK-1953           
1 47554U 21009G   21188.12014316  .00000692  00000-0  65507-4 0  9999
2 47554  53.0518 132.7054 0007460  63.0038 297.1712 15.06391863 23431
STARLINK-1954           
1 47555U 21009H   21188.22793367  .00000941  00000-0  82062-4 0  9993
2 47555  53.0575 122.2264 0001846  67.9099 292.2086 15.06404598 24198
STARLINK-1955           
1 47556U 21009J   21188.19658116  .00003360  00000-0  24415-3 0  9997
2 47556  53.0544 142.3500 0001021  51.4814 308.6266 15.06432803 23303
STARLINK-1956           
1 47557U 21009K   21188.55782015  .00000846  00000-0  75703-4 0  9997
2 47557  53.0569 140.7412 0001002  26.6877 333.4164 15.06400000 23966
STARLINK-1957           
1 47558U 21009L   21188.00001157 -.00023726  00000-0 -15782-2 0  9992
2 47558  53.0529 113.2465 0001950  79.4373 238.9422 15.06422556 24298
STARLINK-1958           
1 47559U 21009M   21188.66667824  .00036697  00000-0  24718-2 0  9992
2 47559  53.0559 100.2411 0001677  77.5725  93.2099 15.06368829 24547
STARLINK-1959           
1 47560U 21009N   21188.89323802 -.00006459  00000-0 -41466-3 0  9999
2 47560  53.0590  99.2265 0002236  72.1054 288.0179 15.06435439 24585
STARLINK-1960           
1 47561U 21009P   21188.21690140  .00000826  00000-0  74489-4 0  9990
2 47561  53.0765 122.1748 0008481  26.8573 333.2854 15.06414091 24193
STARLINK-1961           
1 47562U 21009Q   21188.09893500  .00000861  00000-0  76691-4 0  9998
2 47562  53.0553 122.7937 0001807  72.1874 287.9312 15.06396081 24178
STARLINK-1962           
1 47563U 21009R   21188.85086438 -.00000774  00000-0 -33079-4 0  9995
2 47563  53.0560 119.4118 0001619  64.4448 295.6708 15.06393895 24280
STARLINK-1963           
1 47564U 21009S   21188.66667824  .00045148  00000-0  30323-2 0  9998
2 47564  53.0544 110.2417 0002204  76.0570 359.6526 15.06377594 24401
STARLINK-1964           
1 47565U 21009T   21188.66667824  .00043334  00000-0  29119-2 0  9995
2 47565  53.0541 110.2417 0001918  80.2437  15.4551 15.06378696 24408
STARLINK-1965           
1 47566U 21009U   21188.66667824 -.00006513  00000-0 -41874-3 0  9999
2 47566  53.0549 100.2414 0001587  78.6962  52.0631 15.06401363 24548
STARLINK-1966           
1 47567U 21009V   21188.14869864  .00000670  00000-0  63890-4 0  9990
2 47567  53.0550 142.5739 0001279  48.5484 311.5614 15.06402862 23293
STARLINK-1967           
1 47568U 21009W   21188.17448520  .00000545  00000-0  55483-4 0  9996
2 47568  53.0565 142.4724 0000806  47.1579 312.9478 15.06401556 23302
STARLINK-1968           
1 47569U 21009X   21188.66667824 -.00279821  00000-0 -17840-1 0  9990
2 47569  53.0537 115.1115 0006718 277.3338  63.6538 15.09656218 24332
STARLINK-1969           
1 47570U 21009Y   21188.66667824  .00002213  00000-0  16742-3 0  9991
2 47570  53.0573 100.2431 0001727  78.8613 111.8723 15.06403142 24543
STARLINK-1970           
1 47571U 21009Z   21188.66667824  .00039614  00000-0  26646-2 0  9990
2 47571  53.0543 110.2411 0002098  87.5852  48.1272 15.06382871 24405
STARLINK-1971           
1 47572U 21009AA  21188.83334491 -.00006071  00000-0 -38902-3 0  9993
2 47572  53.0538 109.4910 0001768  78.3829 341.6950 15.06398264 24439
STARLINK-1975           
1 47573U 21009AB  21188.66667824  .00048184  00000-0  32336-2 0  9997
2 47573  53.0508 110.2823 0001915  80.9157 274.8115 15.06377629 24394
STARLINK-1976           
1 47574U 21009AC  21188.15237929  .00000655  00000-0  62813-4 0  9997
2 47574  53.0529 142.5543 0000911  35.7318 324.3732 15.06408902 23290
STARLINK-1977           
1 47575U 21009AD  21188.60575328  .00000802  00000-0  72744-4 0  9994
2 47575  53.0547 140.5182 0001007  58.5248 301.5839 15.06390496 23967
STARLINK-1978           
1 47576U 21009AE  21188.25001157 -.00001838  00000-0 -10451-3 0  9998
2 47576  53.0564 102.1142 0001507  65.0468 344.8968 15.06394077 24489
STARLINK-1979           
1 47577U 21009AF  21188.21550177 -.00001159  00000-0 -58952-4 0  9991
2 47577  53.0704 117.2141 0001834  76.8546 283.2648 15.06396176 24261
STARLINK-1980           
1 47578U 21009AG  21188.20949970  .00001074  00000-0  90993-4 0  9999
2 47578  53.0525 122.3067 0001880  73.2962 286.8233 15.06403787 23581
STARLINK-1981           
1 47579U 21009AH  21188.66667824  .00046582  00000-0  31309-2 0  9992
2 47579  53.0541 110.2425 0001387  68.6927 347.0991 15.06336261 24400
STARLINK-1982           
1 47580U 21009AJ  21188.21319416 -.00000662  00000-0 -25511-4 0  9997
2 47580  53.0497 122.3085 0001885  75.6205 284.4993 15.06392003 24185
STARLINK-1984           
1 47581U 21009AK  21188.83334491 -.00015796  00000-0 -10433-2 0  9995
2 47581  53.0533  99.4940 0001393  81.7544 153.2175 15.06420219 24567
STARLINK-1986           
1 47582U 21009AL  21188.51175532 -.00000677  00000-0 -26561-4 0  9993
2 47582  53.0561 120.9348 0001682  54.8518 305.2628 15.06396623 24231
STARLINK-1987           
1 47583U 21009AM  21188.15790742 -.00000430  00000-0 -99446-5 0  9990
2 47583  53.0560 122.5300 0001852  63.3603 296.7575 15.06396106 24192
